{
  "type": "FeatureCollection",
  "features": [
    {
      "type": "Feature",
      "properties": {
        "norad_id": 38116,
        "name": "FENGYUN 1C DEB",
        "group": "fengyun-1c-debris",
        "lat": -1.2883937332360578,
        "lon": 32.93509124391472,
        "alt_km": 869.4443602878009,
        "timestamp": "2025-12-20T03:42:47.682960+00:00",
        "meta_object_name": "FENGYUN 1C DEB",
        "meta_object_id": "1999-025EPM",
        "meta_epoch": "2025-12-13T09:07:05.482848",
        "meta_mean_motion": 14.17018726,
        "meta_eccentricity": 0.00724721,
        "meta_inclination": 98.7128,
        "meta_ra_of_asc_node": 26.1003,
        "meta_arg_of_pericenter": 144.8988,
        "meta_mean_anomaly": 233.7196,
        "meta_ephemeris_type": 0,
        "meta_classification_type": "U",
        "meta_norad_cat_id": 38116,
        "meta_element_set_no": 999,
        "meta_rev_at_epoch": 64494,
        "meta_bstar": 0.00072544359,
        "meta_mean_motion_dot": 1.454e-05,
        "meta_mean_motion_ddot": 0,
        "tle_line1": "1 38116U 99025EPM 25347.37992457  .00001454  00000+0  72544-3 0  9999",
        "tle_line2": "2 38116  98.7128  26.1003 0072472 144.8988 233.7196 14.17018726644947"
      },
      "geometry": {
        "type": "Point",
        "coordinates": [
          32.93509124391472,
          -1.2883937332360578
        ]
      }
    },
    {
      "type": "Feature",
      "properties": {
        "norad_id": 38121,
        "name": "FENGYUN 1C DEB",
        "group": "fengyun-1c-debris",
        "lat": 36.71362859669269,
        "lon": 139.0003468219413,
        "alt_km": 761.0744804429323,
        "timestamp": "2025-12-20T03:42:47.682970+00:00",
        "meta_object_name": "FENGYUN 1C DEB",
        "meta_object_id": "1999-025EPS",
        "meta_epoch": "2025-12-13T04:20:01.430304",
        "meta_mean_motion": 14.21784212,
        "meta_eccentricity": 0.02064826,
        "meta_inclination": 99.1148,
        "meta_ra_of_asc_node": 138.6695,
        "meta_arg_of_pericenter": 126.4735,
        "meta_mean_anomaly": 235.5664,
        "meta_ephemeris_type": 0,
        "meta_classification_type": "U",
        "meta_norad_cat_id": 38121,
        "meta_element_set_no": 999,
        "meta_rev_at_epoch": 83926,
        "meta_bstar": 0.0016630973,
        "meta_mean_motion_dot": 4.5e-05,
        "meta_mean_motion_ddot": 0,
        "tle_line1": "1 38121U 99025EPS 25347.18057211  .00004500  00000+0  16631-2 0  9993",
        "tle_line2": "2 38121  99.1148 138.6695 0206482 126.4735 235.5664 14.21784212839268"
      },
      "geometry": {
        "type": "Point",
        "coordinates": [
          139.0003468219413,
          36.71362859669269
        ]
      }
    },
    {
      "type": "Feature",
      "properties": {
        "norad_id": 38122,
        "name": "FENGYUN 1C DEB",
        "group": "fengyun-1c-debris",
        "lat": 8.046368950489985,
        "lon": 177.5976683706526,
        "alt_km": 620.7829291540938,
        "timestamp": "2025-12-20T03:42:47.682979+00:00",
        "meta_object_name": "FENGYUN 1C DEB",
        "meta_object_id": "1999-025EPT",
        "meta_epoch": "2025-12-18T10:59:07.874592",
        "meta_mean_motion": 14.42665602,
        "meta_eccentricity": 0.02280901,
        "meta_inclination": 98.317,
        "meta_ra_of_asc_node": 354.7559,
        "meta_arg_of_pericenter": 139.6251,
        "meta_mean_anomaly": 222.2123,
        "meta_ephemeris_type": 0,
        "meta_classification_type": "U",
        "meta_norad_cat_id": 38122,
        "meta_element_set_no": 999,
        "meta_rev_at_epoch": 67821,
        "meta_bstar": 0.0002815985,
        "meta_mean_motion_dot": 1.231e-05,
        "meta_mean_motion_ddot": 0,
        "tle_line1": "1 38122U 99025EPT 25352.45773003  .00001231  00000+0  28160-3 0  9993",
        "tle_line2": "2 38122  98.3170 354.7559 0228090 139.6251 222.2123 14.42665602678216"
      },
      "geometry": {
        "type": "Point",
        "coordinates": [
          177.5976683706526,
          8.046368950489985
        ]
      }
    },
    {
      "type": "Feature",
      "properties": {
        "norad_id": 38124,
        "name": "FENGYUN 1C DEB",
        "group": "fengyun-1c-debris",
        "lat": -82.081172550578,
        "lon": 44.48857729027451,
        "alt_km": 859.3302082758464,
        "timestamp": "2025-12-20T03:42:47.682990+00:00",
        "meta_object_name": "FENGYUN 1C DEB",
        "meta_object_id": "1999-025EPV",
        "meta_epoch": "2025-12-13T03:48:53.053632",
        "meta_mean_motion": 13.40935403,
        "meta_eccentricity": 0.03557245,
        "meta_inclination": 97.8087,
        "meta_ra_of_asc_node": 299.6458,
        "meta_arg_of_pericenter": 305.0279,
        "meta_mean_anomaly": 51.7953,
        "meta_ephemeris_type": 0,
        "meta_classification_type": "U",
        "meta_norad_cat_id": 38124,
        "meta_element_set_no": 999,
        "meta_rev_at_epoch": 54587,
        "meta_bstar": 0.00060323956,
        "meta_mean_motion_dot": 4.51e-06,
        "meta_mean_motion_ddot": 0,
        "tle_line1": "1 38124U 99025EPV 25347.15894738  .00000451  00000+0  60324-3 0  9996",
        "tle_line2": "2 38124  97.8087 299.6458 0355724 305.0279  51.7953 13.40935403545875"
      },
      "geometry": {
        "type": "Point",
        "coordinates": [
          44.48857729027451,
          -82.081172550578
        ]
      }
    },
    {
      "type": "Feature",
      "properties": {
        "norad_id": 38130,
        "name": "FENGYUN 1C DEB",
        "group": "fengyun-1c-debris",
        "lat": -39.668774762527484,
        "lon": -142.04977945281766,
        "alt_km": 831.843449756203,
        "timestamp": "2025-12-20T03:42:47.683000+00:00",
        "meta_object_name": "FENGYUN 1C DEB",
        "meta_object_id": "1999-025EQB",
        "meta_epoch": "2025-11-28T09:19:02.490528",
        "meta_mean_motion": 13.7720595,
        "meta_eccentricity": 0.02085156,
        "meta_inclination": 98.6035,
        "meta_ra_of_asc_node": 25.4413,
        "meta_arg_of_pericenter": 263.5047,
        "meta_mean_anomaly": 94.2329,
        "meta_ephemeris_type": 0,
        "meta_classification_type": "U",
        "meta_norad_cat_id": 38130,
        "meta_element_set_no": 999,
        "meta_rev_at_epoch": 69085,
        "meta_bstar": 0.0016964005,
        "meta_mean_motion_dot": 1.933e-05,
        "meta_mean_motion_ddot": 0,
        "tle_line1": "1 38130U 99025EQB 25332.38822327  .00001933  00000+0  16964-2 0  9993",
        "tle_line2": "2 38130  98.6035  25.4413 0208515 263.5047  94.2329 13.77205950690851"
      },
      "geometry": {
        "type": "Point",
        "coordinates": [
          -142.04977945281766,
          -39.668774762527484
        ]
      }
    },
    {
      "type": "Feature",
      "properties": {
        "norad_id": 38135,
        "name": "FENGYUN 1C DEB",
        "group": "fengyun-1c-debris",
        "lat": 70.5863499677292,
        "lon": 25.22698164560884,
        "alt_km": 652.4143974428316,
        "timestamp": "2025-12-20T03:42:47.683010+00:00",
        "meta_object_name": "FENGYUN 1C DEB",
        "meta_object_id": "1999-025EQG",
        "meta_epoch": "2025-12-18T09:16:04.268928",
        "meta_mean_motion": 14.25293923,
        "meta_eccentricity": 0.02228188,
        "meta_inclination": 98.6596,
        "meta_ra_of_asc_node": 49.1015,
        "meta_arg_of_pericenter": 55.0123,
        "meta_mean_anomaly": 307.1755,
        "meta_ephemeris_type": 0,
        "meta_classification_type": "U",
        "meta_norad_cat_id": 38135,
        "meta_element_set_no": 999,
        "meta_rev_at_epoch": 61121,
        "meta_bstar": 0.00031139501,
        "meta_mean_motion_dot": 9.03e-06,
        "meta_mean_motion_ddot": 0,
        "tle_line1": "1 38135U 99025EQG 25352.38616052  .00000903  00000+0  31140-3 0  9996",
        "tle_line2": "2 38135  98.6596  49.1015 0222818  55.0123 307.1755 14.25293923611213"
      },
      "geometry": {
        "type": "Point",
        "coordinates": [
          25.22698164560884,
          70.5863499677292
        ]
      }
    },
    {
      "type": "Feature",
      "properties": {
        "norad_id": 38137,
        "name": "FENGYUN 1C DEB",
        "group": "fengyun-1c-debris",
        "lat": -80.33859937762249,
        "lon": 150.28887596112247,
        "alt_km": 906.5029647486272,
        "timestamp": "2025-12-20T03:42:47.683020+00:00",
        "meta_object_name": "FENGYUN 1C DEB",
        "meta_object_id": "1999-025EQJ",
        "meta_epoch": "2025-12-11T22:03:53.453088",
        "meta_mean_motion": 14.06158007,
        "meta_eccentricity": 0.0046494,
        "meta_inclination": 98.8649,
        "meta_ra_of_asc_node": 28.6821,
        "meta_arg_of_pericenter": 71.683,
        "meta_mean_anomaly": 288.9388,
        "meta_ephemeris_type": 0,
        "meta_classification_type": "U",
        "meta_norad_cat_id": 38137,
        "meta_element_set_no": 999,
        "meta_rev_at_epoch": 63697,
        "meta_bstar": 0.00049172,
        "meta_mean_motion_dot": 7.73e-06,
        "meta_mean_motion_ddot": 0,
        "tle_line1": "1 38137U 99025EQJ 25345.91936867  .00000773  00000+0  49172-3 0  9997",
        "tle_line2": "2 38137  98.8649  28.6821 0046494  71.6830 288.9388 14.06158007636976"
      },
      "geometry": {
        "type": "Point",
        "coordinates": [
          150.28887596112247,
          -80.33859937762249
        ]
      }
    }
  ]
}